{
  "type": "FeatureCollection",
  "features": [
    {
      "type": "Feature",
      "properties": {
        "norad_id": 36585,
        "name": "GPS BIIF-1  (PRN 25)",
        "group": "gnss",
        "lat": -2.6539846954945174,
        "lon": 37.5550229530406,
        "alt_km": 20338.509073200188,
        "timestamp": "2025-12-23T16:57:12.593199+00:00",
        "meta_object_name": "GPS BIIF-1  (PRN 25)",
        "meta_object_id": "2010-022A",
        "meta_epoch": "2025-12-23T05:44:03.055200",
        "meta_mean_motion": 2.00553739,
        "meta_eccentricity": 0.01265225,
        "meta_inclination": 54.2985,
        "meta_ra_of_asc_node": 215.6505,
        "meta_arg_of_pericenter": 65.2085,
        "meta_mean_anomaly": 139.2805,
        "meta_ephemeris_type": 0,
        "meta_classification_type": "U",
        "meta_norad_cat_id": 36585,
        "meta_element_set_no": 999,
        "meta_rev_at_epoch": 11406,
        "meta_bstar": 0,
        "meta_mean_motion_dot": 7.2e-07,
        "meta_mean_motion_ddot": 0,
        "tle_line1": "1 36585U 10022A   25357.23892425  .00000072  00000+0  00000+0 0  9996",
        "tle_line2": "2 36585  54.2985 215.6505 0126522  65.2085 139.2805  2.00553739114064"
      },
      "geometry": {
        "type": "Point",
        "coordinates": [
          37.5550229530406,
          -2.6539846954945174
        ]
      }
    },
    {
      "type": "Feature",
      "properties": {
        "norad_id": 36828,
        "name": "BEIDOU-2 IGSO-1 (C06)",
        "group": "gnss",
        "lat": -49.2992218997754,
        "lon": 107.68577190423764,
        "alt_km": 35734.11465993062,
        "timestamp": "2025-12-23T16:57:12.593211+00:00",
        "meta_object_name": "BEIDOU-2 IGSO-1 (C06)",
        "meta_object_id": "2010-036A",
        "meta_epoch": "2025-12-20T21:47:26.739168",
        "meta_mean_motion": 1.00282395,
        "meta_eccentricity": 0.0051798,
        "meta_inclination": 54.2882,
        "meta_ra_of_asc_node": 164.5739,
        "meta_arg_of_pericenter": 215.2932,
        "meta_mean_anomaly": 144.6604,
        "meta_ephemeris_type": 0,
        "meta_classification_type": "U",
        "meta_norad_cat_id": 36828,
        "meta_element_set_no": 999,
        "meta_rev_at_epoch": 5631,
        "meta_bstar": 0,
        "meta_mean_motion_dot": -5.5e-07,
        "meta_mean_motion_ddot": 0,
        "tle_line1": "1 36828U 10036A   25354.90794837 -.00000055  00000+0  00000+0 0  9992",
        "tle_line2": "2 36828  54.2882 164.5739 0051798 215.2932 144.6604  1.00282395 56317"
      },
      "geometry": {
        "type": "Point",
        "coordinates": [
          107.68577190423764,
          -49.2992218997754
        ]
      }
    },
    {
      "type": "Feature",
      "properties": {
        "norad_id": 37210,
        "name": "BEIDOU-2 G4 (C04)",
        "group": "gnss",
        "lat": 3.1435138493725945,
        "lon": 146.74969459262175,
        "alt_km": 35805.49123684882,
        "timestamp": "2025-12-23T16:57:12.593224+00:00",
        "meta_object_name": "BEIDOU-2 G4 (C04)",
        "meta_object_id": "2010-057A",
        "meta_epoch": "2025-12-23T05:20:01.162752",
        "meta_mean_motion": 1.00271801,
        "meta_eccentricity": 0.00103967,
        "meta_inclination": 3.2089,
        "meta_ra_of_asc_node": 69.8991,
        "meta_arg_of_pericenter": 193.5513,
        "meta_mean_anomaly": 68.6549,
        "meta_ephemeris_type": 0,
        "meta_classification_type": "U",
        "meta_norad_cat_id": 37210,
        "meta_element_set_no": 999,
        "meta_rev_at_epoch": 5552,
        "meta_bstar": 0,
        "meta_mean_motion_dot": -9.2e-07,
        "meta_mean_motion_ddot": 0,
        "tle_line1": "1 37210U 10057A   25357.22223568 -.00000092  00000+0  00000+0 0  9998",
        "tle_line2": "2 37210   3.2089  69.8991 0010396 193.5513  68.6549  1.00271801 55520"
      },
      "geometry": {
        "type": "Point",
        "coordinates": [
          146.74969459262175,
          3.1435138493725945
        ]
      }
    },
    {
      "type": "Feature",
      "properties": {
        "norad_id": 37256,
        "name": "BEIDOU-2 IGSO-2 (C07)",
        "group": "gnss",
        "lat": -0.3277854326567833,
        "lon": 94.31027872563614,
        "alt_km": 35617.043295325755,
        "timestamp": "2025-12-23T16:57:12.593236+00:00",
        "meta_object_name": "BEIDOU-2 IGSO-2 (C07)",
        "meta_object_id": "2010-068A",
        "meta_epoch": "2025-12-22T18:34:33.319200",
        "meta_mean_motion": 1.00283389,
        "meta_eccentricity": 0.00485799,
        "meta_inclination": 47.8675,
        "meta_ra_of_asc_node": 274.0264,
        "meta_arg_of_pericenter": 216.371,
        "meta_mean_anomaly": 347.8143,
        "meta_ephemeris_type": 0,
        "meta_classification_type": "U",
        "meta_norad_cat_id": 37256,
        "meta_element_set_no": 999,
        "meta_rev_at_epoch": 5502,
        "meta_bstar": 0,
        "meta_mean_motion_dot": -1.86e-06,
        "meta_mean_motion_ddot": 0,
        "tle_line1": "1 37256U 10068A   25356.77399675 -.00000186  00000+0  00000+0 0  9996",
        "tle_line2": "2 37256  47.8675 274.0264 0048579 216.3710 347.8143  1.00283389 55026"
      },
      "geometry": {
        "type": "Point",
        "coordinates": [
          94.31027872563614,
          -0.3277854326567833
        ]
      }
    },
    {
      "type": "Feature",
      "properties": {
        "norad_id": 37384,
        "name": "BEIDOU-2 IGSO-3 (C08)",
        "group": "gnss",
        "lat": 44.08120746655931,
        "lon": 72.61711974205276,
        "alt_km": 35889.11680096784,
        "timestamp": "2025-12-23T16:57:12.593248+00:00",
        "meta_object_name": "BEIDOU-2 IGSO-3 (C08)",
        "meta_object_id": "2011-013A",
        "meta_epoch": "2025-12-22T13:40:14.018880",
        "meta_mean_motion": 1.00268611,
        "meta_eccentricity": 0.00353737,
        "meta_inclination": 62.1558,
        "meta_ra_of_asc_node": 41.8231,
        "meta_arg_of_pericenter": 187.5329,
        "meta_mean_anomaly": 174.3937,
        "meta_ephemeris_type": 0,
        "meta_classification_type": "U",
        "meta_norad_cat_id": 37384,
        "meta_element_set_no": 999,
        "meta_rev_at_epoch": 5389,
        "meta_bstar": 0,
        "meta_mean_motion_dot": -1.6e-06,
        "meta_mean_motion_ddot": 0,
        "tle_line1": "1 37384U 11013A   25356.56960670 -.00000160  00000+0  00000+0 0  9997",
        "tle_line2": "2 37384  62.1558  41.8231 0035373 187.5329 174.3937  1.00268611 53893"
      },
      "geometry": {
        "type": "Point",
        "coordinates": [
          72.61711974205276,
          44.08120746655931
        ]
      }
    },
    {
      "type": "Feature",
      "properties": {
        "norad_id": 37605,
        "name": "GSAT-8 (GAGAN/PRN 127)",
        "group": "gnss",
        "lat": -1.1134494143410159,
        "lon": 41.94649926771011,
        "alt_km": 35811.52862470217,
        "timestamp": "2025-12-23T16:57:12.593261+00:00",
        "meta_object_name": "GSAT-8 (GAGAN/PRN 127)",
        "meta_object_id": "2011-022A",
        "meta_epoch": "2025-12-23T03:07:21.419328",
        "meta_mean_motion": 1.00271109,
        "meta_eccentricity": 0.0008903,
        "meta_inclination": 1.6749,
        "meta_ra_of_asc_node": 84.0866,
        "meta_arg_of_pericenter": 185.9047,
        "meta_mean_anomaly": 283.8415,
        "meta_ephemeris_type": 0,
        "meta_classification_type": "U",
        "meta_norad_cat_id": 37605,
        "meta_element_set_no": 999,
        "meta_rev_at_epoch": 5145,
        "meta_bstar": 0,
        "meta_mean_motion_dot": 1.05e-06,
        "meta_mean_motion_ddot": 0,
        "tle_line1": "1 37605U 11022A   25357.13010902  .00000105  00000+0  00000+0 0  9999",
        "tle_line2": "2 37605   1.6749  84.0866 0008903 185.9047 283.8415  1.00271109 51453"
      },
      "geometry": {
        "type": "Point",
        "coordinates": [
          41.94649926771011,
          -1.1134494143410159
        ]
      }
    },
    {
      "type": "Feature",
      "properties": {
        "norad_id": 37763,
        "name": "BEIDOU-2 IGSO-4 (C09)",
        "group": "gnss",
        "lat": -54.167158755197946,
        "lon": 86.64787553131498,
        "alt_km": 35344.10781828042,
        "timestamp": "2025-12-23T16:57:12.593274+00:00",
        "meta_object_name": "BEIDOU-2 IGSO-4 (C09)",
        "meta_object_id": "2011-038A",
        "meta_epoch": "2025-12-21T10:06:26.864064",
        "meta_mean_motion": 1.00280083,
        "meta_eccentricity": 0.01491557,
        "meta_inclination": 54.5854,
        "meta_ra_of_asc_node": 167.2693,
        "meta_arg_of_pericenter": 230.0944,
        "meta_mean_anomaly": 299.1265,
        "meta_ephemeris_type": 0,
        "meta_classification_type": "U",
        "meta_norad_cat_id": 37763,
        "meta_element_set_no": 999,
        "meta_rev_at_epoch": 5286,
        "meta_bstar": 0,
        "meta_mean_motion_dot": 5.9e-07,
        "meta_mean_motion_ddot": 0,
        "tle_line1": "1 37763U 11038A   25355.42114426  .00000059  00000+0  00000+0 0  9995",
        "tle_line2": "2 37763  54.5854 167.2693 0149155 230.0944 299.1265  1.00280083 52867"
      },
      "geometry": {
        "type": "Point",
        "coordinates": [
          86.64787553131498,
          -54.167158755197946
        ]
      }
    }
  ]
}